SENTINEL-6              
1 46984U 20086A   24123.55722652 -.00000042  00000+0  83550-4 0  9994
2 46984  66.0412 306.0438 0007747 270.7584  89.2544 12.80930580161101
